start=new Date('2021-10-21T00:00:00.000Z').valueOf();
sats=[{"SEMIMAJOR_AXIS":"6925.351","ARG_OF_PERICENTER":"87.1181","MEAN_MOTION_DOT":"-0.00001706","COUNTRY_CODE":"US","PERIAPSIS":"546.443","EPHEMERIS_TYPE":"0","GP_ID":"187755685","DECAY_DATE":null,"INCLINATION":"53.0570","TLE_LINE2":"2 47399  53.0570  29.2685 0001116  87.1181 272.9936 15.06399316 41995","REF_FRAME":"TEME","CENTER_NAME":"EARTH","PERIOD":"95.592","OBJECT_ID":"2021-005BC","MEAN_MOTION":"15.06399316","MEAN_ELEMENT_THEORY":"SGP4","FILE":"3175135","OBJECT_TYPE":"PAYLOAD","NORAD_CAT_ID":"47399","ELEMENT_SET_NO":"999","ECCENTRICITY":"0.00011160","MEAN_MOTION_DDOT":"0.0000000000000","OBJECT_NAME":"STARLINK-2121","APOAPSIS":"547.989","EPOCH":"2021-10-20T13:55:42.762720","BSTAR":"-0.00009565500000","RCS_SIZE":"LARGE","MEAN_ANOMALY":"272.9936","TLE_LINE1":"1 47399U 21005BC  21293.58035605 -.00001706  00000-0 -95655-4 0  9999","CLASSIFICATION_TYPE":"U","REV_AT_EPOCH":"4199","SITE":"AFETR","TIME_SYSTEM":"UTC","LAUNCH_DATE":"2021-01-20","RA_OF_ASC_NODE":"29.2685"},{"BSTAR":"-0.00005664500000","RCS_SIZE":"LARGE","MEAN_ANOMALY":"245.7580","TLE_LINE1":"1 47400U 21005BD  21293.69645107 -.00001125  00000-0 -56645-4 0  9999","REV_AT_EPOCH":"4229","CLASSIFICATION_TYPE":"U","SITE":"AFETR","TIME_SYSTEM":"UTC","RA_OF_ASC_NODE":"8.7524","LAUNCH_DATE":"2021-01-20","MEAN_ELEMENT_THEORY":"SGP4","FILE":"3175135","OBJECT_TYPE":"PAYLOAD","NORAD_CAT_ID":"47400","ELEMENT_SET_NO":"999","ECCENTRICITY":"0.00011660","MEAN_MOTION_DDOT":"0.0000000000000","APOAPSIS":"548.017","OBJECT_NAME":"STARLINK-2122","EPOCH":"2021-10-20T16:42:53.372448","DECAY_DATE":null,"INCLINATION":"53.0538","TLE_LINE2":"2 47400  53.0538   8.7524 0001166 114.3531 245.7580 15.06401407 42295","REF_FRAME":"TEME","CENTER_NAME":"EARTH","PERIOD":"95.592","OBJECT_ID":"2021-005BD","MEAN_MOTION":"15.06401407","SEMIMAJOR_AXIS":"6925.344","ARG_OF_PERICENTER":"114.3531","MEAN_MOTION_DOT":"-0.00001125","COUNTRY_CODE":"US","PERIAPSIS":"546.402","EPHEMERIS_TYPE":"0","GP_ID":"187755935"},{"PERIOD":"95.592","CENTER_NAME":"EARTH","OBJECT_ID":"2021-005BE","MEAN_MOTION":"15.06397857","INCLINATION":"53.0566","DECAY_DATE":null,"REF_FRAME":"TEME","TLE_LINE2":"2 47401  53.0566  19.2735 0001041  92.0861 268.0247 15.06397857 42143","MEAN_MOTION_DOT":"-0.00001334","COUNTRY_CODE":"US","EPHEMERIS_TYPE":"0","GP_ID":"187757187","PERIAPSIS":"546.499","SEMIMAJOR_AXIS":"6925.355","ARG_OF_PERICENTER":"92.0861","REV_AT_EPOCH":"4214","CLASSIFICATION_TYPE":"U","SITE":"AFETR","LAUNCH_DATE":"2021-01-20","RA_OF_ASC_NODE":"19.2735","TIME_SYSTEM":"UTC","BSTAR":"-0.00007069600000","RCS_SIZE":"LARGE","MEAN_ANOMALY":"268.0247","TLE_LINE1":"1 47401U 21005BE  21293.58222864 -.00001334  00000-0 -70696-4 0  9993","MEAN_MOTION_DDOT":"0.0000000000000","ECCENTRICITY":"0.00010410","ELEMENT_SET_NO":"999","EPOCH":"2021-10-20T13:58:24.554496","OBJECT_NAME":"STARLINK-2123","APOAPSIS":"547.941","MEAN_ELEMENT_THEORY":"SGP4","FILE":"3175135","NORAD_CAT_ID":"47401","OBJECT_TYPE":"PAYLOAD"},{"ARG_OF_PERICENTER":"92.2295","SEMIMAJOR_AXIS":"6925.387","GP_ID":"187716019","EPHEMERIS_TYPE":"0","PERIAPSIS":"546.253","MEAN_MOTION_DOT":"-0.00002704","COUNTRY_CODE":"US","INCLINATION":"53.0561","DECAY_DATE":null,"REF_FRAME":"TEME","TLE_LINE2":"2 47402  53.0561  19.4910 0001442  92.2295 267.8859 15.06387522 42137","OBJECT_ID":"2021-005BF","MEAN_MOTION":"15.06387522","PERIOD":"95.593","CENTER_NAME":"EARTH","NORAD_CAT_ID":"47402","OBJECT_TYPE":"PAYLOAD","MEAN_ELEMENT_THEORY":"SGP4","FILE":"3174382","MEAN_MOTION_DDOT":"0.0000000000000","ECCENTRICITY":"0.00014420","ELEMENT_SET_NO":"999","EPOCH":"2021-10-20T12:49:22.950624","APOAPSIS":"548.250","OBJECT_NAME":"STARLINK-2124","MEAN_ANOMALY":"267.8859","TLE_LINE1":"1 47402U 21005BF  21293.53429341 -.00002704  00000-0 -16275-3 0  9992","BSTAR":"-0.00016275000000","RCS_SIZE":"LARGE","RA_OF_ASC_NODE":"19.4910","LAUNCH_DATE":"2021-01-20","TIME_SYSTEM":"UTC","CLASSIFICATION_TYPE":"U","REV_AT_EPOCH":"4213","SITE":"AFETR"},{"OBJECT_TYPE":"PAYLOAD","NORAD_CAT_ID":"47403","MEAN_ELEMENT_THEORY":"SGP4","FILE":"3174382","ELEMENT_SET_NO":"999","ECCENTRICITY":"0.00013770","MEAN_MOTION_DDOT":"0.0000000000000","OBJECT_NAME":"STARLINK-2127","APOAPSIS":"548.216","EPOCH":"2021-10-20T11:24:28.884384","MEAN_ANOMALY":"274.3443","TLE_LINE1":"1 47403U 21005BG  21293.47533431 -.00001693  00000-0 -94842-4 0  9995","BSTAR":"-0.00009484200000","RCS_SIZE":"LARGE","TIME_SYSTEM":"UTC","LAUNCH_DATE":"2021-01-20","RA_OF_ASC_NODE":"19.7530","CLASSIFICATION_TYPE":"U","REV_AT_EPOCH":"4212","SITE":"AFETR","ARG_OF_PERICENTER":"85.7703","SEMIMAJOR_AXIS":"6925.397","PERIAPSIS":"546.309","EPHEMERIS_TYPE":"0","GP_ID":"187716770","MEAN_MOTION_DOT":"-0.00001693","COUNTRY_CODE":"US","DECAY_DATE":null,"INCLINATION":"53.0578","TLE_LINE2":"2 47403  53.0578  19.7530 0001377  85.7703 274.3443 15.06384150 42120","REF_FRAME":"TEME","OBJECT_ID":"2021-005BG","MEAN_MOTION":"15.06384150","PERIOD":"95.593","CENTER_NAME":"EARTH"},{"DECAY_DATE":null,"INCLINATION":"53.0569","TLE_LINE2":"2 47404  53.0569  19.1720 0001150  90.4294 269.6826 15.06386053 42141","REF_FRAME":"TEME","OBJECT_ID":"2021-005BH","MEAN_MOTION":"15.06386053","CENTER_NAME":"EARTH","PERIOD":"95.593","ARG_OF_PERICENTER":"90.4294","SEMIMAJOR_AXIS":"6925.391","PERIAPSIS":"546.460","GP_ID":"187756436","EPHEMERIS_TYPE":"0","MEAN_MOTION_DOT":"-0.00004617","COUNTRY_CODE":"US","MEAN_ANOMALY":"269.6826","TLE_LINE1":"1 47404U 21005BH  21293.60433626 -.00004617  00000-0 -29136-3 0  9998","BSTAR":"-0.00029136000000","RCS_SIZE":"LARGE","TIME_SYSTEM":"UTC","LAUNCH_DATE":"2021-01-20","RA_OF_ASC_NODE":"19.1720","CLASSIFICATION_TYPE":"U","REV_AT_EPOCH":"4214","SITE":"AFETR","OBJECT_TYPE":"PAYLOAD","NORAD_CAT_ID":"47404","MEAN_ELEMENT_THEORY":"SGP4","FILE":"3175135","ELEMENT_SET_NO":"999","ECCENTRICITY":"0.00011500","MEAN_MOTION_DDOT":"0.0000000000000","OBJECT_NAME":"STARLINK-2128","APOAPSIS":"548.053","EPOCH":"2021-10-20T14:30:14.652864"},{"OBJECT_NAME":"STARLINK-2130","APOAPSIS":"550.543","EPOCH":"2021-10-20T14:01:14.302848","ELEMENT_SET_NO":"999","MEAN_MOTION_DDOT":"0.0000000000000","ECCENTRICITY":"0.00011500","FILE":"3174382","MEAN_ELEMENT_THEORY":"SGP4","OBJECT_TYPE":"PAYLOAD","NORAD_CAT_ID":"47405","SITE":"AFETR","CLASSIFICATION_TYPE":"U","REV_AT_EPOCH":"4171","TIME_SYSTEM":"UTC","LAUNCH_DATE":"2021-01-20","RA_OF_ASC_NODE":"49.3215","RCS_SIZE":"LARGE","BSTAR":"0.00002494800000","TLE_LINE1":"1 47405U 21005BJ  21293.58419332  .00000084  00000-0  24948-4 0  9993","MEAN_ANOMALY":"257.4702","COUNTRY_CODE":"US","MEAN_MOTION_DOT":"0.00000084","PERIAPSIS":"548.949","EPHEMERIS_TYPE":"0","GP_ID":"187715269","SEMIMAJOR_AXIS":"6927.881","ARG_OF_PERICENTER":"102.6415","CENTER_NAME":"EARTH","PERIOD":"95.645","MEAN_MOTION":"15.05574140","OBJECT_ID":"2021-005BJ","TLE_LINE2":"2 47405  53.0580  49.3215 0001150 102.6415 257.4702 15.05574140 41715","REF_FRAME":"TEME","DECAY_DATE":null,"INCLINATION":"53.0580"},{"LAUNCH_DATE":"2021-01-20","RA_OF_ASC_NODE":"19.4096","TIME_SYSTEM":"UTC","SITE":"AFETR","REV_AT_EPOCH":"4274","CLASSIFICATION_TYPE":"U","TLE_LINE1":"1 47406U 21005BK  21293.54905528 -.00001416  00000-0 -76208-4 0  9995","MEAN_ANOMALY":"263.3925","RCS_SIZE":"LARGE","BSTAR":"-0.00007620800000","EPOCH":"2021-10-20T13:10:38.376192","OBJECT_NAME":"STARLINK-2133","APOAPSIS":"547.980","ECCENTRICITY":"0.00011000","MEAN_MOTION_DDOT":"0.0000000000000","ELEMENT_SET_NO":"999","NORAD_CAT_ID":"47406","OBJECT_TYPE":"PAYLOAD","FILE":"3174601","MEAN_ELEMENT_THEORY":"SGP4","MEAN_MOTION":"15.06398355","OBJECT_ID":"2021-005BK","CENTER_NAME":"EARTH","PERIOD":"95.592","REF_FRAME":"TEME","TLE_LINE2":"2 47406  53.0566  19.4096 0001100  96.7190 263.3925 15.06398355 42743","INCLINATION":"53.0566","DECAY_DATE":null,"GP_ID":"187721990","EPHEMERIS_TYPE":"0","PERIAPSIS":"546.457","COUNTRY_CODE":"US","MEAN_MOTION_DOT":"-0.00001416","ARG_OF_PERICENTER":"96.7190","SEMIMAJOR_AXIS":"6925.354"},{"SEMIMAJOR_AXIS":"6925.386","ARG_OF_PERICENTER":"87.0689","COUNTRY_CODE":"US","MEAN_MOTION_DOT":"-0.00001588","GP_ID":"187755686","EPHEMERIS_TYPE":"0","PERIAPSIS":"546.357","REF_FRAME":"TEME","TLE_LINE2":"2 47407  53.0576  19.0925 0001290  87.0689 273.0447 15.06387936 42142","INCLINATION":"53.0576","DECAY_DATE":null,"CENTER_NAME":"EARTH","PERIOD":"95.593","MEAN_MOTION":"15.06387936","OBJECT_ID":"2021-005BL","FILE":"3175135","MEAN_ELEMENT_THEORY":"SGP4","NORAD_CAT_ID":"47407","OBJECT_TYPE":"PAYLOAD","EPOCH":"2021-10-20T14:56:47.197536","APOAPSIS":"548.144","OBJECT_NAME":"STARLINK-2134","ECCENTRICITY":"0.00012900","MEAN_MOTION_DDOT":"0.0000000000000","ELEMENT_SET_NO":"999","RCS_SIZE":"LARGE","BSTAR":"-0.00008776700000","TLE_LINE1":"1 47407U 21005BL  21293.62276849 -.00001588  00000-0 -87767-4 0  9994","MEAN_ANOMALY":"273.0447","SITE":"AFETR","CLASSIFICATION_TYPE":"U","REV_AT_EPOCH":"4214","RA_OF_ASC_NODE":"19.0925","LAUNCH_DATE":"2021-01-20","TIME_SYSTEM":"UTC"},{"OBJECT_ID":"2021-005BM","MEAN_MOTION":"15.06402073","CENTER_NAME":"EARTH","PERIOD":"95.592","INCLINATION":"53.0569","DECAY_DATE":null,"REF_FRAME":"TEME","TLE_LINE2":"2 47408  53.0569  18.9135 0001225  90.5366 269.5763 15.06402073 42157","EPHEMERIS_TYPE":"0","GP_ID":"187755936","PERIAPSIS":"546.359","MEAN_MOTION_DOT":"-0.00001520","COUNTRY_CODE":"US","ARG_OF_PERICENTER":"90.5366","SEMIMAJOR_AXIS":"6925.342","LAUNCH_DATE":"2021-01-20","RA_OF_ASC_NODE":"18.9135","TIME_SYSTEM":"UTC","REV_AT_EPOCH":"4215","CLASSIFICATION_TYPE":"U","SITE":"AFETR","MEAN_ANOMALY":"269.5763","TLE_LINE1":"1 47408U 21005BM  21293.65961944 -.00001520  00000-0 -83179-4 0  9994","BSTAR":"-0.00008317900000","RCS_SIZE":"LARGE","ECCENTRICITY":"0.00012250","MEAN_MOTION_DDOT":"0.0000000000000","ELEMENT_SET_NO":"999","EPOCH":"2021-10-20T15:49:51.119616","OBJECT_NAME":"STARLINK-2135","APOAPSIS":"548.056","NORAD_CAT_ID":"47408","OBJECT_TYPE":"PAYLOAD","MEAN_ELEMENT_THEORY":"SGP4","FILE":"3175135"}];
